start=new Date('2022-02-19T00:00:00.000Z').valueOf();
sats=[{"REF_FRAME":"TEME","GP_ID":"196293183","EPOCH":"2022-02-18T10:40:55.452000","TLE_LINE2":"2 47173  53.0569 106.6781 0001743  46.6267 313.4867 15.06390362 68738","MEAN_ANOMALY":"313.4867","REV_AT_EPOCH":"6873","OBJECT_ID":"2020-088BD","MEAN_ELEMENT_THEORY":"SGP4","MEAN_MOTION_DOT":"0.00001872","OBJECT_TYPE":"PAYLOAD","INCLINATION":"53.0569","SEMIMAJOR_AXIS":"6925.378","RCS_SIZE":"LARGE","SITE":"AFETR","RA_OF_ASC_NODE":"106.6781","PERIOD":"95.593","MEAN_MOTION":"15.06390362","APOAPSIS":"548.450","TLE_LINE1":"1 47173U 20088BD  22049.44508625  .00001872  00000-0  14460-3 0  9997","OBJECT_NAME":"STARLINK-1890","DECAY_DATE":null,"ARG_OF_PERICENTER":"46.6267","EPHEMERIS_TYPE":"0","COUNTRY_CODE":"US","NORAD_CAT_ID":"47173","ECCENTRICITY":"0.00017430","FILE":"3306500","CLASSIFICATION_TYPE":"U","BSTAR":"0.00014460000000","CENTER_NAME":"EARTH","MEAN_MOTION_DDOT":"0.0000000000000","LAUNCH_DATE":"2020-11-25","TIME_SYSTEM":"UTC","PERIAPSIS":"546.036","ELEMENT_SET_NO":"999"},{"BSTAR":"0.00023415000000","FILE":"3307132","CLASSIFICATION_TYPE":"U","CENTER_NAME":"EARTH","ARG_OF_PERICENTER":"51.2536","DECAY_DATE":null,"EPHEMERIS_TYPE":"0","NORAD_CAT_ID":"47174","COUNTRY_CODE":"US","ECCENTRICITY":"0.00017520","APOAPSIS":"548.399","TLE_LINE1":"1 47174U 20088BE  22049.58882959  .00003209  00000-0  23415-3 0  9994","OBJECT_NAME":"STARLINK-1891","ELEMENT_SET_NO":"999","PERIAPSIS":"545.972","TIME_SYSTEM":"UTC","MEAN_MOTION_DDOT":"0.0000000000000","LAUNCH_DATE":"2020-11-25","MEAN_ANOMALY":"308.8609","REV_AT_EPOCH":"6875","OBJECT_ID":"2020-088BE","TLE_LINE2":"2 47174  53.0539 106.0593 0001752  51.2536 308.8609 15.06409077 68750","EPOCH":"2022-02-18T14:07:54.876576","GP_ID":"196333244","REF_FRAME":"TEME","PERIOD":"95.592","MEAN_MOTION":"15.06409077","SITE":"AFETR","RA_OF_ASC_NODE":"106.0593","OBJECT_TYPE":"PAYLOAD","INCLINATION":"53.0539","SEMIMAJOR_AXIS":"6925.321","RCS_SIZE":"LARGE","MEAN_MOTION_DOT":"0.00003209","MEAN_ELEMENT_THEORY":"SGP4"},{"REV_AT_EPOCH":"6903","MEAN_ANOMALY":"311.3806","OBJECT_ID":"2020-088BF","TLE_LINE2":"2 47175  53.0542  86.0508 0001757  48.7334 311.3806 15.06395600 69036","EPOCH":"2022-02-18T14:05:16.535616","GP_ID":"196333991","REF_FRAME":"TEME","PERIOD":"95.592","MEAN_MOTION":"15.06395600","SITE":"AFETR","RA_OF_ASC_NODE":"86.0508","OBJECT_TYPE":"PAYLOAD","INCLINATION":"53.0542","SEMIMAJOR_AXIS":"6925.362","RCS_SIZE":"LARGE","MEAN_ELEMENT_THEORY":"SGP4","MEAN_MOTION_DOT":"0.00001578","BSTAR":"0.00012483000000","FILE":"3307132","CLASSIFICATION_TYPE":"U","CENTER_NAME":"EARTH","DECAY_DATE":null,"ARG_OF_PERICENTER":"48.7334","EPHEMERIS_TYPE":"0","NORAD_CAT_ID":"47175","COUNTRY_CODE":"US","ECCENTRICITY":"0.00017570","APOAPSIS":"548.444","TLE_LINE1":"1 47175U 20088BF  22049.58699694  .00001578  00000-0  12483-3 0  9997","OBJECT_NAME":"STARLINK-1895","ELEMENT_SET_NO":"999","PERIAPSIS":"546.010","TIME_SYSTEM":"UTC","MEAN_MOTION_DDOT":"0.0000000000000","LAUNCH_DATE":"2020-11-25"},{"MEAN_MOTION":"15.06425451","PERIOD":"95.591","RA_OF_ASC_NODE":"96.4199","SITE":"AFETR","RCS_SIZE":"LARGE","SEMIMAJOR_AXIS":"6925.271","INCLINATION":"53.0537","OBJECT_TYPE":"PAYLOAD","MEAN_ELEMENT_THEORY":"SGP4","MEAN_MOTION_DOT":"0.00011215","OBJECT_ID":"2020-088BH","MEAN_ANOMALY":"290.6590","REV_AT_EPOCH":"6888","TLE_LINE2":"2 47177  53.0537  96.4199 0001353  69.4544 290.6590 15.06425451 68887","EPOCH":"2022-02-18T12:07:11.218080","REF_FRAME":"TEME","GP_ID":"196292434","ELEMENT_SET_NO":"999","PERIAPSIS":"546.199","TIME_SYSTEM":"UTC","LAUNCH_DATE":"2020-11-25","MEAN_MOTION_DDOT":"0.0000000000000","CENTER_NAME":"EARTH","CLASSIFICATION_TYPE":"U","FILE":"3306500","BSTAR":"0.00077009000000","COUNTRY_CODE":"US","ECCENTRICITY":"0.00013530","NORAD_CAT_ID":"47177","EPHEMERIS_TYPE":"0","DECAY_DATE":null,"ARG_OF_PERICENTER":"69.4544","OBJECT_NAME":"STARLINK-1907","TLE_LINE1":"1 47177U 20088BH  22049.50499095  .00011215  00000-0  77009-3 0  9998","APOAPSIS":"548.073"},{"PERIAPSIS":"546.116","ELEMENT_SET_NO":"999","MEAN_MOTION_DDOT":"0.0000000000000","LAUNCH_DATE":"2020-11-25","TIME_SYSTEM":"UTC","FILE":"3307132","CLASSIFICATION_TYPE":"U","BSTAR":"0.00028295000000","CENTER_NAME":"EARTH","APOAPSIS":"548.215","TLE_LINE1":"1 47178U 20088BJ  22049.88370624  .00003937  00000-0  28295-3 0  9991","OBJECT_NAME":"STARLINK-1912","DECAY_DATE":null,"ARG_OF_PERICENTER":"69.1484","EPHEMERIS_TYPE":"0","NORAD_CAT_ID":"47178","COUNTRY_CODE":"US","ECCENTRICITY":"0.00015150","SITE":"AFETR","RA_OF_ASC_NODE":"104.7168","PERIOD":"95.591","MEAN_MOTION":"15.06415678","MEAN_MOTION_DOT":"0.00003937","MEAN_ELEMENT_THEORY":"SGP4","OBJECT_TYPE":"PAYLOAD","INCLINATION":"53.0534","SEMIMAJOR_AXIS":"6925.301","RCS_SIZE":"LARGE","TLE_LINE2":"2 47178  53.0534 104.7168 0001515  69.1484 290.9667 15.06415678 68792","REV_AT_EPOCH":"6879","MEAN_ANOMALY":"290.9667","OBJECT_ID":"2020-088BJ","GP_ID":"196332493","REF_FRAME":"TEME","EPOCH":"2022-02-18T21:12:32.219136"},{"PERIOD":"95.593","MEAN_MOTION":"15.06388927","RA_OF_ASC_NODE":"114.7701","SITE":"AFETR","SEMIMAJOR_AXIS":"6925.382","RCS_SIZE":"LARGE","OBJECT_TYPE":"PAYLOAD","INCLINATION":"53.0528","MEAN_MOTION_DOT":"0.00004669","MEAN_ELEMENT_THEORY":"SGP4","OBJECT_ID":"2020-088BK","REV_AT_EPOCH":"6865","MEAN_ANOMALY":"291.7565","TLE_LINE2":"2 47179  53.0528 114.7701 0001200  68.3552 291.7565 15.06388927 68655","EPOCH":"2022-02-18T20:55:17.947200","REF_FRAME":"TEME","GP_ID":"196333744","ELEMENT_SET_NO":"999","PERIAPSIS":"546.416","TIME_SYSTEM":"UTC","LAUNCH_DATE":"2020-11-25","MEAN_MOTION_DDOT":"0.0000000000000","CENTER_NAME":"EARTH","CLASSIFICATION_TYPE":"U","FILE":"3307132","BSTAR":"0.00033223000000","EPHEMERIS_TYPE":"0","NORAD_CAT_ID":"47179","COUNTRY_CODE":"US","ECCENTRICITY":"0.00012000","DECAY_DATE":null,"ARG_OF_PERICENTER":"68.3552","TLE_LINE1":"1 47179U 20088BK  22049.87173550  .00004669  00000-0  33223-3 0  9990","OBJECT_NAME":"STARLINK-1913","APOAPSIS":"548.079"},{"MEAN_MOTION":"15.06400371","PERIOD":"95.592","SITE":"AFETR","RA_OF_ASC_NODE":"86.6884","INCLINATION":"53.0552","OBJECT_TYPE":"PAYLOAD","RCS_SIZE":"LARGE","SEMIMAJOR_AXIS":"6925.347","MEAN_ELEMENT_THEORY":"SGP4","MEAN_MOTION_DOT":"0.00001873","REV_AT_EPOCH":"6901","MEAN_ANOMALY":"310.7863","OBJECT_ID":"2020-088BM","TLE_LINE2":"2 47181  53.0552  86.6884 0001906  49.3291 310.7863 15.06400371 69018","EPOCH":"2022-02-18T10:43:34.087584","GP_ID":"196293686","REF_FRAME":"TEME","ELEMENT_SET_NO":"999","PERIAPSIS":"545.892","TIME_SYSTEM":"UTC","MEAN_MOTION_DDOT":"0.0000000000000","LAUNCH_DATE":"2020-11-25","CLASSIFICATION_TYPE":"U","FILE":"3306500","BSTAR":"0.00014458000000","CENTER_NAME":"EARTH","DECAY_DATE":null,"ARG_OF_PERICENTER":"49.3291","ECCENTRICITY":"0.00019060","COUNTRY_CODE":"US","NORAD_CAT_ID":"47181","EPHEMERIS_TYPE":"0","APOAPSIS":"548.532","OBJECT_NAME":"STARLINK-1927","TLE_LINE1":"1 47181U 20088BM  22049.44692231  .00001873  00000-0  14458-3 0  9991"},{"PERIOD":"91.332","MEAN_MOTION":"15.76664946","SITE":"AFETR","RA_OF_ASC_NODE":"147.9691","OBJECT_TYPE":"PAYLOAD","INCLINATION":"53.0431","SEMIMAJOR_AXIS":"6718.035","RCS_SIZE":"LARGE","MEAN_ELEMENT_THEORY":"SGP4","MEAN_MOTION_DOT":"-0.00023629","MEAN_ANOMALY":"46.4411","REV_AT_EPOCH":"6106","OBJECT_ID":"2021-005A","TLE_LINE2":"2 47349  53.0431 147.9691 0006533 313.6066  46.4411 15.76664946 61061","EPOCH":"2022-02-18T17:33:27.673056","GP_ID":"196333762","REF_FRAME":"TEME","ELEMENT_SET_NO":"999","PERIAPSIS":"335.511","TIME_SYSTEM":"UTC","MEAN_MOTION_DDOT":"0.0000000000000","LAUNCH_DATE":"2021-01-20","BSTAR":"-0.00014088000000","FILE":"3307132","CLASSIFICATION_TYPE":"U","CENTER_NAME":"EARTH","DECAY_DATE":null,"ARG_OF_PERICENTER":"313.6066","EPHEMERIS_TYPE":"0","COUNTRY_CODE":"US","NORAD_CAT_ID":"47349","ECCENTRICITY":"0.00065330","APOAPSIS":"344.288","TLE_LINE1":"1 47349U 21005A   22049.73157029 -.00023629  00000-0 -14088-3 0  9994","OBJECT_NAME":"STARLINK-1952"},{"TIME_SYSTEM":"UTC","LAUNCH_DATE":"2021-01-20","MEAN_MOTION_DDOT":"0.0000000000000","ELEMENT_SET_NO":"999","PERIAPSIS":"546.093","EPHEMERIS_TYPE":"0","COUNTRY_CODE":"US","ECCENTRICITY":"0.00016050","NORAD_CAT_ID":"47350","DECAY_DATE":null,"ARG_OF_PERICENTER":"68.2400","TLE_LINE1":"1 47350U 21005B   22049.81737290  .00001040  00000-0  88731-4 0  9997","OBJECT_NAME":"STARLINK-2011","APOAPSIS":"548.316","CENTER_NAME":"EARTH","CLASSIFICATION_TYPE":"U","FILE":"3307132","BSTAR":"0.00008873100000","SEMIMAJOR_AXIS":"6925.339","RCS_SIZE":"LARGE","OBJECT_TYPE":"PAYLOAD","INCLINATION":"53.0536","MEAN_MOTION_DOT":"0.00001040","MEAN_ELEMENT_THEORY":"SGP4","PERIOD":"95.592","MEAN_MOTION":"15.06402957","RA_OF_ASC_NODE":"225.0170","SITE":"AFETR","EPOCH":"2022-02-18T19:37:01.018560","REF_FRAME":"TEME","GP_ID":"196333510","OBJECT_ID":"2021-005B","REV_AT_EPOCH":"5999","MEAN_ANOMALY":"291.8760","TLE_LINE2":"2 47350  53.0536 225.0170 0001605  68.2400 291.8760 15.06402957 59996"},{"RCS_SIZE":"LARGE","SEMIMAJOR_AXIS":"6925.340","INCLINATION":"53.0535","OBJECT_TYPE":"PAYLOAD","MEAN_ELEMENT_THEORY":"SGP4","MEAN_MOTION_DOT":"0.00001825","MEAN_MOTION":"15.06402782","PERIOD":"95.592","RA_OF_ASC_NODE":"184.8791","SITE":"AFETR","EPOCH":"2022-02-18T20:19:27.863328","REF_FRAME":"TEME","GP_ID":"196332761","OBJECT_ID":"2021-005C","REV_AT_EPOCH":"6055","MEAN_ANOMALY":"283.1084","TLE_LINE2":"2 47351  53.0535 184.8791 0001228  77.0042 283.1084 15.06402782 60551","TIME_SYSTEM":"UTC","LAUNCH_DATE":"2021-01-20","MEAN_MOTION_DDOT":"0.0000000000000","ELEMENT_SET_NO":"999","PERIAPSIS":"546.355","NORAD_CAT_ID":"47351","COUNTRY_CODE":"US","ECCENTRICITY":"0.00012280","EPHEMERIS_TYPE":"0","DECAY_DATE":null,"ARG_OF_PERICENTER":"77.0042","OBJECT_NAME":"STARLINK-2017","TLE_LINE1":"1 47351U 21005C   22049.84685027  .00001825  00000-0  14135-3 0  9998","APOAPSIS":"548.055","CENTER_NAME":"EARTH","FILE":"3307132","CLASSIFICATION_TYPE":"U","BSTAR":"0.00014135000000"}];
